{"spkid": "50359293", "covariance": {"epoch": "2454274.5", "labels": ["e", "q", "tp", "node", "peri", "i"], "data": [["1.119937648362551E-15", "-2.321742205212522E-15", "-2.944447970656572E-13", "8.852734935422564E-14", "-4.744271336623317E-13", "-4.661759209621531E-14"], ["-2.321742205212522E-15", "5.633905817326853E-15", "6.795184201218522E-13", "-2.435075250200358E-13", "1.148450438441631E-12", "9.645988365711004E-14"], ["-2.944447970656572E-13", "6.795184201218522E-13", "7.717357861213343E-10", "1.704494499572438E-10", "7.758518428800618E-10", "-1.743219055585171E-10"], ["8.852734935422564E-14", "-2.435075250200358E-13", "1.704494499572438E-10", "4.667023674761789E-10", "-2.170111304470686E-10", "-1.359091928536876E-10"], ["-4.744271336623317E-13", "1.148450438441631E-12", "7.758518428800618E-10", "-2.170111304470686E-10", "1.174306676710933E-9", "-1.122330103315201E-10"], ["-4.661759209621531E-14", "9.645988365711004E-14", "-1.743219055585171E-10", "-1.359091928536876E-10", "-1.122330103315201E-10", "2.73742473873908E-10"]], "elements": [{"sigma": 3.3465469492636e-08, "name": "e", "units": null, "value": ".6014849240896178", "title": "eccentricity", "label": "e"}, {"label": "q", "name": "q", "sigma": 7.50593486337768e-08, "units": "au", "value": ".9843032296648523", "title": "perihelion distance"}, {"sigma": 2.77801329392308e-05, "name": "tp", "value": "2454065.218238789855", "title": "time of perihelion passage", "units": "TDB", "label": "tp"}, {"label": "node", "name": "om", "sigma": 2.16032952920655e-05, "units": "deg", "title": "longitude of the ascending node", "value": "244.9567230549247"}, {"label": "peri", "units": "deg", "title": "argument of perihelion", "value": "170.5980777867754", "sigma": 3.42681583501497e-05, "name": "w"}, {"units": "deg", "title": "inclination", "value": "13.68714298716247", "sigma": 1.65451646674764e-05, "name": "i", "label": "i"}]}, "elements": [{"sigma": "3.5595E-8", "name": "e", "title": "eccentricity", "value": ".600897379265133", "units": null, "label": "e"}, {"sigma": "7.2689E-8", "name": "a", "title": "semi-major axis", "value": "2.471987599294351", "units": "au", "label": "a"}, {"units": "au", "title": "perihelion distance", "value": ".9865767293024678", "sigma": "8.1418E-8", "name": "q", "label": "q"}, {"label": "i", "value": "13.68686182724979", "title": "inclination; angle with respect to x-y ecliptic plane", "units": "deg", "sigma": "1.6577E-5", "name": "i"}, {"label": "node", "sigma": "2.1586E-5", "name": "om", "value": "244.8343427681987", "title": "longitude of the ascending node", "units": "deg"}, {"sigma": "3.4222E-5", "name": "w", "units": "deg", "title": "argument of perihelion", "value": "170.6184754112199", "label": "peri"}, {"units": "deg", "title": "mean anomaly", "value": "10.76516749548886", "sigma": "8.4606E-5", "name": "ma", "label": "M"}, {"name": "tp", "sigma": ".00033176", "title": "time of perihelion passage", "value": "2461158.049173597844", "units": "TDB", "label": "tp"}, {"value": "1419.606105634702", "title": "sidereal orbital period", "units": "d", "sigma": "6.2615E-5", "name": "per", "label": "period"}, {"name": "n", "sigma": "1.1185E-8", "value": ".2535914705995471", "title": "mean motion", "units": "deg/d", "label": "n"}, {"name": "ad", "sigma": "1.1637E-7", "units": "au", "value": "3.957398469286234", "title": "aphelion distance", "label": "Q"}], "epoch": "2461200.5"}